CTC1_L_00389016-03
1 30853U 24366ON  26037.47805556  .00000000  00000+0  00000-0 0  9997
2 30853  75.0000 180.0000 0000000   0.0000   0.0000 13.03091717    15
CTC1_L_00389016-04
1 30854U 25658OF  26037.47805556  .00000000  00000+0  00000-0 0  9993
2 30854  75.0000 180.0000 0000000   0.0000  90.0000 13.03091717    15
CTC1_L_00389017-01
1 30855U 24963EV  26037.47805556  .00000000  00000+0  00000-0 0  9992
2 30855  75.0000 192.0000 0000000   0.0000 192.0000 13.03091717    12
CTC1_L_00389017-02
1 30856U 24380AW  26037.47805556  .00000000  00000+0  00000-0 0  9996
2 30856  75.0000 192.0000 0000000   0.0000 282.0000 13.03091717    13
CTC1_L_00389017-03
1 30857U 24248JO  26037.47805556  .00000000  00000+0  00000-0 0  9990
2 30857  75.0000 192.0000 0000000   0.0000  12.0000 13.03091717    15
CTC1_L_00389017-04
1 30858U 22884RU  26037.47805556  .00000000  00000+0  00000-0 0  9995
2 30858  75.0000 192.0000 0000000   0.0000 102.0000 13.03091717    16
CTC1_L_00389018-01
1 30859U 23361VK  26037.47805556  .00000000  00000+0  00000-0 0  9997
2 30859  75.0000 204.0000 0000000   0.0000 204.0000 13.03091717    14
CTC1_L_00389018-02
1 30860U 22778QC  26037.47805556  .00000000  00000+0  00000-0 0  9990
2 30860  75.0000 204.0000 0000000   0.0000 294.0000 13.03091717    15
CTC1_L_00389018-03
1 30861U 23547UY  26037.47805556  .00000000  00000+0  00000-0 0  9996
2 30861  75.0000 204.0000 0000000   0.0000  24.0000 13.03091717    17
CTC1_L_00389018-04
1 30862U 22828SE  26037.47805556  .00000000  00000+0  00000-0 0  9998
2 30862  75.0000 204.0000 0000000   0.0000 114.0000 13.03091717    18
CTC1_L_00389019-01
1 30863U 24334TU  26037.47805556  .00000000  00000+0  00000-0 0  9993
2 30863  75.0000 216.0000 0000000   0.0000 216.0000 13.03091717    15
CTC1_L_00389019-02
1 30864U 24885BJ  26037.47805556  .00000000  00000+0  00000-0 0  9995
2 30864  75.0000 216.0000 0000000   0.0000 306.0000 13.03091717    16
CTC1_L_00389019-03
1 30865U 22712NU  26037.47805556  .00000000  00000+0  00000-0 0  9993
2 30865  75.0000 216.0000 0000000   0.0000  36.0000 13.03091717    17
CTC1_L_00389019-04
1 30866U 25279CK  26037.47805556  .00000000  00000+0  00000-0 0  9995
2 30866  75.0000 216.0000 0000000   0.0000 126.0000 13.03091717    18
CTC1_L_00389020-01
1 30867U 22480OC  26037.47805556  .00000000  00000+0  00000-0 0  9997
2 30867  75.0000 228.0000 0000000   0.0000 228.0000 13.03091717    15
CTC1_L_00389020-02
1 30868U 25021MQ  26037.47805556  .00000000  00000+0  00000-0 0  9992
2 30868  75.0000 228.0000 0000000   0.0000 318.0000 13.03091717    16
CTC1_L_00389020-03
1 30869U 26569CR  26037.47805556  .00000000  00000+0  00000-0 0  9991
2 30869  75.0000 228.0000 0000000   0.0000  48.0000 13.03091717    17
CTC1_L_00389020-04
1 30870U 26830DL  26037.47805556  .00000000  00000+0  00000-0 0  9994
2 30870  75.0000 228.0000 0000000   0.0000 138.0000 13.03091717    19
CTC1_L_00389021-01
1 30871U 26371OE  26037.47805556  .00000000  00000+0  00000-0 0  9995
2 30871  75.0000 240.0000 0000000   0.0000 240.0000 13.03091717    18
CTC1_L_00389021-02
1 30872U 26289BK  26037.47805556  .00000000  00000+0  00000-0 0  9994
2 30872  75.0000 240.0000 0000000   0.0000 330.0000 13.03091717    19
CTC1_L_00389021-03
1 30873U 22985OV  26037.47805556  .00000000  00000+0  00000-0 0  9994
2 30873  75.0000 240.0000 0000000   0.0000  60.0000 13.03091717    10
CTC1_L_00389021-04
1 30874U 25026ZE  26037.47805556  .00000000  00000+0  00000-0 0  9994
2 30874  75.0000 240.0000 0000000   0.0000 150.0000 13.03091717    11
CTC1_L_00389022-01
1 30875U 23770MD  26037.47805556  .00000000  00000+0  00000-0 0  9999
2 30875  75.0000 252.0000 0000000   0.0000 252.0000 13.03091717    18
CTC1_L_00389022-02
1 30876U 24177PN  26037.47805556  .00000000  00000+0  00000-0 0  9992
2 30876  75.0000 252.0000 0000000   0.0000 342.0000 13.03091717    19
CTC1_L_00389022-03
1 30877U 23585EO  26037.47805556  .00000000  00000+0  00000-0 0  9995
2 30877  75.0000 252.0000 0000000   0.0000  72.0000 13.03091717    10
CTC1_L_00389022-04
1 30878U 22135TL  26037.47805556  .00000000  00000+0  00000-0 0  9996
2 30878  75.0000 252.0000 0000000   0.0000 162.0000 13.03091717    11
CTC1_L_00389023-01
1 30879U 23554FD  26037.47805556  .00000000  00000+0  00000-0 0  9993
2 30879  75.0000 264.0000 0000000   0.0000 264.0000 13.03091717    18
CTC1_L_00389023-02
1 30880U 24653ZO  26037.47805556  .00000000  00000+0  00000-0 0  9996
2 30880  75.0000 264.0000 0000000   0.0000 354.0000 13.03091717    10
CTC1_L_00389023-03
1 30881U 24504OQ  26037.47805556  .00000000  00000+0  00000-0 0  9992
2 30881  75.0000 264.0000 0000000   0.0000  84.0000 13.03091717    11
CTC1_L_00389023-04
1 30882U 26235RX  26037.47805556  .00000000  00000+0  00000-0 0  9996
2 30882  75.0000 264.0000 0000000   0.0000 174.0000 13.03091717    12
CTC1_L_00389024-01
1 30883U 26083YI  26037.47805556  .00000000  00000+0  00000-0 0  9998
2 30883  75.0000 276.0000 0000000   0.0000 276.0000 13.03091717    19
CTC1_L_00389024-02
1 30884U 23673ZE  26037.47805556  .00000000  00000+0  00000-0 0  9991
2 30884  75.0000 276.0000 0000000   0.0000   6.0000 13.03091717    11
CTC1_L_00389024-03
1 30885U 26906P   26037.47805556  .00000000  00000+0  00000-0 0  9994
2 30885  75.0000 276.0000 0000000   0.0000  96.0000 13.03091717    11
CTC1_L_00389024-04
1 30886U 23760RZ  26037.47805556  .00000000  00000+0  00000-0 0  9990
2 30886  75.0000 276.0000 0000000   0.0000 186.0000 13.03091717    12
CTC1_L_00389025-01
1 30887U 23388VQ  26037.47805556  .00000000  00000+0  00000-0 0  9997
2 30887  75.0000 288.0000 0000000   0.0000 288.0000 13.03091717    19
CTC1_L_00389025-02
1 30888U 22864WP  26037.47805556  .00000000  00000+0  00000-0 0  9996
2 30888  75.0000 288.0000 0000000   0.0000  18.0000 13.03091717    11
CTC1_L_00389025-03
1 30889U 26663WZ  26037.47805556  .00000000  00000+0  00000-0 0  9998
2 30889  75.0000 288.0000 0000000   0.0000 108.0000 13.03091717    12
CTC1_L_00389025-04
1 30890U 22630WH  26037.47805556  .00000000  00000+0  00000-0 0  9990
2 30890  75.0000 288.0000 0000000   0.0000 198.0000 13.03091717    13
CTC1_L_00389026-01
1 30891U 22967LB  26037.47805556  .00000000  00000+0  00000-0 0  9994
2 30891  75.0000 300.0000 0000000   0.0000 300.0000 13.03091717    14
CTC1_L_00389026-02
1 30892U 26258HH  26037.47805556  .00000000  00000+0  00000-0 0  9992
2 30892  75.0000 300.0000 0000000   0.0000  30.0000 13.03091717    15
CTC1_L_00389026-03
1 30893U 26995RP  26037.47805556  .00000000  00000+0  00000-0 0  9991
2 30893  75.0000 300.0000 0000000   0.0000 120.0000 13.03091717    16
CTC1_L_00389026-04
1 30894U 25903YI  26037.47805556  .00000000  00000+0  00000-0 0  9990
2 30894  75.0000 300.0000 0000000   0.0000 210.0000 13.03091717    17
CTC1_L_00389027-01
1 30895U 26425ZL  26037.47805556  .00000000  00000+0  00000-0 0  9991
2 30895  75.0000 312.0000 0000000   0.0000 312.0000 13.03091717    14
CTC1_L_00389027-02
1 30896U 22413RV  26037.47805556  .00000000  00000+0  00000-0 0  9995
2 30896  75.0000 312.0000 0000000   0.0000  42.0000 13.03091717    15
CTC1_L_00389027-03
1 30897U 25044HW  26037.47805556  .00000000  00000+0  00000-0 0  9999
2 30897  75.0000 312.0000 0000000   0.0000 132.0000 13.03091717    16
CTC1_L_00389027-04
1 30898U 24617BV  26037.47805556  .00000000  00000+0  00000-0 0  9995
2 30898  75.0000 312.0000 0000000   0.0000 222.0000 13.03091717    17
CTC1_L_00389028-01
1 30899U 23822EO  26037.47805556  .00000000  00000+0  00000-0 0  9993
2 30899  75.0000 324.0000 0000000   0.0000 324.0000 13.03091717    14
CTC1_L_00389028-02
1 30900U 23310NO  26037.47805556  .00000000  00000+0  00000-0 0  9998
2 30900  75.0000 324.0000 0000000   0.0000  54.0000 13.03091717    17
CTC1_L_00389028-03
1 30901U 25394WS  26037.47805556  .00000000  00000+0  00000-0 0  9993
2 30901  75.0000 324.0000 0000000   0.0000 144.0000 13.03091717    18
CTC1_L_00389028-04
1 30902U 25652EH  26037.47805556  .00000000  00000+0  00000-0 0  9991
2 30902  75.0000 324.0000 0000000   0.0000 234.0000 13.03091717    19
CTC1_L_00389029-01
1 30903U 26665A   26037.47805556  .00000000  00000+0  00000-0 0  9997
2 30903  75.0000 336.0000 0000000   0.0000 336.0000 13.03091717    16
CTC1_L_00389029-02
1 30904U 23510BE  26037.47805556  .00000000  00000+0  00000-0 0  9994
2 30904  75.0000 336.0000 0000000   0.0000  66.0000 13.03091717    17
CTC1_L_00389029-03
1 30905U 24812QU  26037.47805556  .00000000  00000+0  00000-0 0  9991
2 30905  75.0000 336.0000 0000000   0.0000 156.0000 13.03091717    18
CTC1_L_00389029-04
1 30906U 24629FG  26037.47805556  .00000000  00000+0  00000-0 0  9998
2 30906  75.0000 336.0000 0000000   0.0000 246.0000 13.03091717    19
CTC1_L_00389030-01
1 30907U 24154NP  26037.47805556  .00000000  00000+0  00000-0 0  9992
2 30907  75.0000 348.0000 0000000   0.0000 348.0000 13.03091717    16
CTC1_L_00389030-02
1 30908U 22163HM  26037.47805556  .00000000  00000+0  00000-0 0  9991
2 30908  75.0000 348.0000 0000000   0.0000  78.0000 13.03091717    17
CTC1_L_00389030-03
1 30909U 22641XS  26037.47805556  .00000000  00000+0  00000-0 0  9993
2 30909  75.0000 348.0000 0000000   0.0000 168.0000 13.03091717    18
CTC1_L_00389030-04
1 30910U 22133KL  26037.47805556  .00000000  00000+0  00000-0 0  9991
2 30910  75.0000 348.0000 0000000   0.0000 258.0000 13.03091717    10
